[{"OBJECT_NAME":"KUIPER-00114","OBJECT_ID":"2025-171V","EPOCH":"2026-03-09T12:33:46.702080","MEAN_MOTION":14.79936867,"ECCENTRICITY":8.503e-5,"INCLINATION":51.8993,"RA_OF_ASC_NODE":176.3385,"ARG_OF_PERICENTER":132.8626,"MEAN_ANOMALY":227.2408,"EPHEMERIS_TYPE":0,"CLASSIFICATION_TYPE":"U","NORAD_CAT_ID":65151,"ELEMENT_SET_NO":999,"REV_AT_EPOCH":3261,"BSTAR":0.0008099403,"MEAN_MOTION_DOT":5.959e-5,"MEAN_MOTION_DDOT":0},{"OBJECT_NAME":"SL-14 R\/B","OBJECT_ID":"1988-001B","EPOCH":"2026-03-09T19:23:27.101184","MEAN_MOTION":14.85527977,"ECCENTRICITY":0.00168577,"INCLINATION":82.5154,"RA_OF_ASC_NODE":195.2488,"ARG_OF_PERICENTER":235.3305,"MEAN_ANOMALY":124.6323,"EPHEMERIS_TYPE":0,"CLASSIFICATION_TYPE":"U","NORAD_CAT_ID":18749,"ELEMENT_SET_NO":999,"REV_AT_EPOCH":4204,"BSTAR":8.3816284e-5,"MEAN_MOTION_DOT":7.49e-6,"MEAN_MOTION_DDOT":0}]
